{"type": "FeatureCollection", "features": [ {"type": "Feature", "properties": {"norad_id": 43010, "name": "FENGYUN 3D", "group": "weather", "lat": 69.8359715127546, "lon": -77.04885968652317, "alt_km": 819.9442990426305, "timestamp": "2025-12-08T05:48:08.691637+00:00", "meta": {"OBJECT_NAME": "FENGYUN 3D", "OBJECT_ID": "2017-072A", "EPOCH": "2025-12-07T22:41:57.069888", "MEAN_MOTION": 14.19681679, "ECCENTRICITY": 7.917e-05, "INCLINATION": 98.9888, "RA_OF_ASC_NODE": 308.1844, "ARG_OF_PERICENTER": 197.1713, "MEAN_ANOMALY": 162.9436, "EPHEMERIS_TYPE": 0, "CLASSIFICATION_TYPE": "U", "NORAD_CAT_ID": 43010, "ELEMENT_SET_NO": 999, "REV_AT_EPOCH": 41785, "BSTAR": 0.00011542708, "MEAN_MOTION_DOT": 1.98e-06, "MEAN_MOTION_DDOT": 0}, "tle": {"line1": "1 43010U 17072A   25341.94579942  .00000198  00000+0  11543-3 0  9993", "line2": "2 43010  98.9888 308.1844 0000791 197.1713 162.9436 14.19681679417852"}}, "geometry": {"type": "Point", "coordinates": [-77.04885968652317, 69.8359715127546]}}, {"type": "Feature", "properties": {"norad_id": 43013, "name": "NOAA 20 (JPSS-1)", "group": "weather", "lat": -46.292579826696326, "lon": 89.30579599657929, "alt_km": 834.740877373185, "timestamp": "2025-12-08T05:48:08.691648+00:00", "meta": {"OBJECT_NAME": "NOAA 20 (JPSS-1)", "OBJECT_ID": "2017-073A", "EPOCH": "2025-12-07T21:58:12.789984", "MEAN_MOTION": 14.1952356, "ECCENTRICITY": 0.00021134, "INCLINATION": 98.7592, "RA_OF_ASC_NODE": 278.2652, "ARG_OF_PERICENTER": 94.3008, "MEAN_ANOMALY": 265.841, "EPHEMERIS_TYPE": 0, "CLASSIFICATION_TYPE": "U", "NORAD_CAT_ID": 43013, "ELEMENT_SET_NO": 999, "REV_AT_EPOCH": 41733, "BSTAR": 9.3645702e-05, "MEAN_MOTION_DOT": 1.53e-06, "MEAN_MOTION_DDOT": 0}, "tle": {"line1": "1 43013U 17073A   25341.91542581  .00000153  00000+0  93646-4 0  9999", "line2": "2 43013  98.7592 278.2652 0002113  94.3008 265.8410 14.19523560417336"}}, "geometry": {"type": "Point", "coordinates": [89.30579599657929, -46.292579826696326]}}, {"type": "Feature", "properties": {"norad_id": 43226, "name": "GOES 17", "group": "weather", "lat": -0.087617853956598, "lon": 74.79651749560188, "alt_km": 35800.40169927166, "timestamp": "2025-12-08T05:48:08.691660+00:00", "meta": {"OBJECT_NAME": "GOES 17", "OBJECT_ID": "2018-022A", "EPOCH": "2025-12-07T21:46:11.769024", "MEAN_MOTION": 1.00270811, "ECCENTRICITY": 0.00035023, "INCLINATION": 0.447, "RA_OF_ASC_NODE": 89.1971, "ARG_OF_PERICENTER": 184.771, "MEAN_ANOMALY": 40.0041, "EPHEMERIS_TYPE": 0, "CLASSIFICATION_TYPE": "U", "NORAD_CAT_ID": 43226, "ELEMENT_SET_NO": 999, "REV_AT_EPOCH": 2850, "BSTAR": 0, "MEAN_MOTION_DOT": -1.79e-06, "MEAN_MOTION_DDOT": 0}, "tle": {"line1": "1 43226U 18022A   25341.90708066 -.00000179  00000+0  00000+0 0  9997", "line2": "2 43226   0.4470  89.1971 0003502 184.7710  40.0041  1.00270811 28501"}}, "geometry": {"type": "Point", "coordinates": [74.79651749560188, -0.087617853956598]}}, {"type": "Feature", "properties": {"norad_id": 43491, "name": "FENGYUN 2H", "group": "weather", "lat": 0.750229904801424, "lon": -116.3360916773797, "alt_km": 35773.96466277975, "timestamp": "2025-12-08T05:48:08.691671+00:00", "meta": {"OBJECT_NAME": "FENGYUN 2H", "OBJECT_ID": "2018-050A", "EPOCH": "2025-12-07T22:34:20.814816", "MEAN_MOTION": 1.002713, "ECCENTRICITY": 0.00028794, "INCLINATION": 2.5381, "RA_OF_ASC_NODE": 81.3825, "ARG_OF_PERICENTER": 165.7757, "MEAN_ANOMALY": 247.7471, "EPHEMERIS_TYPE": 0, "CLASSIFICATION_TYPE": "U", "NORAD_CAT_ID": 43491, "ELEMENT_SET_NO": 999, "REV_AT_EPOCH": 2752, "BSTAR": 0, "MEAN_MOTION_DOT": -1.28e-06, "MEAN_MOTION_DDOT": 0}, "tle": {"line1": "1 43491U 18050A   25341.94051869 -.00000128  00000+0  00000+0 0  9992", "line2": "2 43491   2.5381  81.3825 0002879 165.7757 247.7471  1.00271300 27525"}}, "geometry": {"type": "Point", "coordinates": [-116.3360916773797, 0.750229904801424]}}, {"type": "Feature", "properties": {"norad_id": 43689, "name": "METOP-C", "group": "weather", "lat": -23.795846104236855, "lon": 43.948778954253214, "alt_km": 825.3803548602655, "timestamp": "2025-12-08T05:48:08.691682+00:00", "meta": {"OBJECT_NAME": "METOP-C", "OBJECT_ID": "2018-087A", "EPOCH": "2025-12-07T21:28:08.282784", "MEAN_MOTION": 14.2150891, "ECCENTRICITY": 0.00015383, "INCLINATION": 98.6936, "RA_OF_ASC_NODE": 39.7382, "ARG_OF_PERICENTER": 50.6529, "MEAN_ANOMALY": 309.4784, "EPHEMERIS_TYPE": 0, "CLASSIFICATION_TYPE": "U", "NORAD_CAT_ID": 43689, "ELEMENT_SET_NO": 999, "REV_AT_EPOCH": 36765, "BSTAR": 0.00012877352, "MEAN_MOTION_DOT": 2.38e-06, "MEAN_MOTION_DDOT": 0}, "tle": {"line1": "1 43689U 18087A   25341.89454031  .00000238  00000+0  12877-3 0  9993", "line2": "2 43689  98.6936  39.7382 0001538  50.6529 309.4784 14.21508910367652"}}, "geometry": {"type": "Point", "coordinates": [43.948778954253214, -23.795846104236855]}}, {"type": "Feature", "properties": {"norad_id": 43823, "name": "GEO-KOMPSAT-2A", "group": "weather", "lat": -0.020796445604677444, "lon": -67.44435761411505, "alt_km": 35786.37714766319, "timestamp": "2025-12-08T05:48:08.691695+00:00", "meta": {"OBJECT_NAME": "GEO-KOMPSAT-2A", "OBJECT_ID": "2018-100A", "EPOCH": "2025-12-07T22:48:19.476288", "MEAN_MOTION": 1.0027108, "ECCENTRICITY": 2.209e-05, "INCLINATION": 0.0574, "RA_OF_ASC_NODE": 115.7765, "ARG_OF_PERICENTER": 83.436, "MEAN_ANOMALY": 348.1045, "EPHEMERIS_TYPE": 0, "CLASSIFICATION_TYPE": "U", "NORAD_CAT_ID": 43823, "ELEMENT_SET_NO": 999, "REV_AT_EPOCH": 2571, "BSTAR": 0, "MEAN_MOTION_DOT": -3.41e-06, "MEAN_MOTION_DDOT": 0}, "tle": {"line1": "1 43823U 18100A   25341.95022542 -.00000341  00000+0  00000+0 0  9991", "line2": "2 43823   0.0574 115.7765 0000220  83.4360 348.1045  1.00271080 25717"}}, "geometry": {"type": "Point", "coordinates": [-67.44435761411505, -0.020796445604677444]}}, {"type": "Feature", "properties": {"norad_id": 44387, "name": "METEOR-M2 2", "group": "weather", "lat": 4.689355115199503, "lon": -38.82056209753853, "alt_km": 813.8801284327656, "timestamp": "2025-12-08T05:48:08.691706+00:00", "meta": {"OBJECT_NAME": "METEOR-M2 2", "OBJECT_ID": "2019-038A", "EPOCH": "2025-12-07T23:02:10.260672", "MEAN_MOTION": 14.24288365, "ECCENTRICITY": 0.00011222, "INCLINATION": 98.8968, "RA_OF_ASC_NODE": 321.6303, "ARG_OF_PERICENTER": 157.6717, "MEAN_ANOMALY": 202.451, "EPHEMERIS_TYPE": 0, "CLASSIFICATION_TYPE": "U", "NORAD_CAT_ID": 44387, "ELEMENT_SET_NO": 999, "REV_AT_EPOCH": 33407, "BSTAR": 0.00015019058, "MEAN_MOTION_DOT": 3.01e-06, "MEAN_MOTION_DDOT": 0}, "tle": {"line1": "1 44387U 19038A   25341.95984098  .00000301  00000+0  15019-3 0  9996", "line2": "2 44387  98.8968 321.6303 0001122 157.6717 202.4510 14.24288365334078"}}, "geometry": {"type": "Point", "coordinates": [-38.82056209753853, 4.689355115199503]}}, {"type": "Feature", "properties": {"norad_id": 47719, "name": "ARKTIKA-M 1", "group": "weather", "lat": 59.76166694009892, "lon": 144.7586157538641, "alt_km": 36213.76930032454, "timestamp": "2025-12-08T05:48:08.691719+00:00", "meta": {"OBJECT_NAME": "ARKTIKA-M 1", "OBJECT_ID": "2021-016A", "EPOCH": "2025-12-01T02:41:41.634816", "MEAN_MOTION": 2.00613156, "ECCENTRICITY": 0.71974708, "INCLINATION": 63.1756, "RA_OF_ASC_NODE": 85.6045, "ARG_OF_PERICENTER": 269.084, "MEAN_ANOMALY": 15.7076, "EPHEMERIS_TYPE": 0, "CLASSIFICATION_TYPE": "U", "NORAD_CAT_ID": 47719, "ELEMENT_SET_NO": 999, "REV_AT_EPOCH": 3481, "BSTAR": 0, "MEAN_MOTION_DOT": -1.2e-07, "MEAN_MOTION_DDOT": 0}, "tle": {"line1": "1 47719U 21016A   25335.11228744 -.00000012  00000+0  00000+0 0  9997", "line2": "2 47719  63.1756  85.6045 7197470 269.0840  15.7076  2.00613156 34816"}}, "geometry": {"type": "Point", "coordinates": [144.7586157538641, 59.76166694009892]}}, {"type": "Feature", "properties": {"norad_id": 49008, "name": "FENGYUN 3E", "group": "weather", "lat": 34.98411465247653, "lon": -23.369202286047365, "alt_km": 823.4620194461986, "timestamp": "2025-12-08T05:48:08.691734+00:00", "meta": {"OBJECT_NAME": "FENGYUN 3E", "OBJECT_ID": "2021-062A", "EPOCH": "2025-12-07T22:52:15.680064", "MEAN_MOTION": 14.19879004, "ECCENTRICITY": 5.937e-05, "INCLINATION": 98.7476, "RA_OF_ASC_NODE": 342.5309, "ARG_OF_PERICENTER": 295.6624, "MEAN_ANOMALY": 64.4491, "EPHEMERIS_TYPE": 0, "CLASSIFICATION_TYPE": "U", "NORAD_CAT_ID": 49008, "ELEMENT_SET_NO": 999, "REV_AT_EPOCH": 22944, "BSTAR": 4.5862328e-05, "MEAN_MOTION_DOT": 5.3e-07, "MEAN_MOTION_DDOT": 0}, "tle": {"line1": "1 49008U 21062A   25341.95295926  .00000053  00000+0  45862-4 0  9990", "line2": "2 49008  98.7476 342.5309 0000593 295.6624  64.4491 14.19879004229443"}}, "geometry": {"type": "Point", "coordinates": [-23.369202286047365, 34.98411465247653]}}, {"type": "Feature", "properties": {"norad_id": 51850, "name": "GOES 18", "group": "weather", "lat": 6.286902389519985e-05, "lon": 27.298502074851623, "alt_km": 35785.814498490836, "timestamp": "2025-12-08T05:48:08.691746+00:00", "meta": {"OBJECT_NAME": "GOES 18", "OBJECT_ID": "2022-021A", "EPOCH": "2025-12-07T18:07:11.700192", "MEAN_MOTION": 1.00272516, "ECCENTRICITY": 8.8e-05, "INCLINATION": 0.0087, "RA_OF_ASC_NODE": 95.72, "ARG_OF_PERICENTER": 202.0589, "MEAN_ANOMALY": 273.7963, "EPHEMERIS_TYPE": 0, "CLASSIFICATION_TYPE": "U", "NORAD_CAT_ID": 51850, "ELEMENT_SET_NO": 999, "REV_AT_EPOCH": 467, "BSTAR": 0, "MEAN_MOTION_DOT": 1e-06, "MEAN_MOTION_DDOT": 0}, "tle": {"line1": "1 51850U 22021A   25341.75499653  .00000100  00000+0  00000+0 0  9998", "line2": "2 51850   0.0087  95.7200 0000880 202.0589 273.7963  1.00272516  4679"}}, "geometry": {"type": "Point", "coordinates": [27.298502074851623, 6.286902389519985e-05]}}]}